[{"OBJECT_NAME":"STARLINK-30370","OBJECT_ID":"2023-131V","EPOCH":"2026-03-09T22:00:01.999584","MEAN_MOTION":15.26761392,"ECCENTRICITY":0.00016504,"INCLINATION":43,"RA_OF_ASC_NODE":156.2263,"ARG_OF_PERICENTER":273.1217,"MEAN_ANOMALY":211.1911,"EPHEMERIS_TYPE":0,"CLASSIFICATION_TYPE":"U","NORAD_CAT_ID":57751,"ELEMENT_SET_NO":999,"REV_AT_EPOCH":578,"BSTAR":-0.00066720584,"MEAN_MOTION_DOT":-0.00018125,"MEAN_MOTION_DDOT":0},{"OBJECT_NAME":"FLOCK 4G-14","OBJECT_ID":"2025-009BL","EPOCH":"2026-03-09T18:12:31.432032","MEAN_MOTION":15.27197201,"ECCENTRICITY":0.00030064,"INCLINATION":97.4064,"RA_OF_ASC_NODE":151.1836,"ARG_OF_PERICENTER":318.3639,"MEAN_ANOMALY":41.7371,"EPHEMERIS_TYPE":0,"CLASSIFICATION_TYPE":"U","NORAD_CAT_ID":62667,"ELEMENT_SET_NO":999,"REV_AT_EPOCH":6371,"BSTAR":0.00042675627,"MEAN_MOTION_DOT":0.0001131,"MEAN_MOTION_DDOT":0}]
